NORAD_CAT_ID,OBJECT_NAME,OBJECT_TYPE,EPOCH,MEAN_MOTION,ECCENTRICITY,INCLINATION,RA_OF_ASC_NODE,ARG_OF_PERICENTER,MEAN_ANOMALY,BSTAR,MEAN_MOTION_DOT,MEAN_MOTION_DDOT,TLE_LINE0,TLE_LINE1,TLE_LINE2,SEMIMAJOR_AXIS,PERIOD,APOGEE,PERIGEE,DECAYED
49751.0,STARLINK-3229,PAYLOAD,2023-10-28 17:34:54,15.08842247,0.0001441,53.2173,63.0085,92.8463,267.2694,0.00027,4.012e-05,0.0,0 STARLINK-3229,1 49751U 21115AD  23301.73257983  .00004012  00000-0  27000-3 0  9998,2 49751  53.2173  63.0085 0001441  92.8463 267.2694 15.08842247106377,6917.874,95.437,540.735,538.742,0.0
49751.0,STARLINK-3229,PAYLOAD,2023-10-29 14:14:55,15.08862462,0.0001385,53.217,59.1412,97.0435,263.0715,0.0010576,0.00016594,0.0,0 STARLINK-3229,1 49751U 21115AD  23302.59369715  .00016594  00000-0  10576-2 0  9997,2 49751  53.2170  59.1412 0001385  97.0435 263.0715 15.08862462105397,6917.812,95.436,540.635,538.719,0.0
49751.0,STARLINK-3229,PAYLOAD,2023-10-30 12:30:19,15.08836265,0.0001426,53.2187,54.9774,112.6466,247.4677,-2.5434e-05,-6.93e-06,0.0,0 STARLINK-3229,1 49751U 21115AD  23303.52106076 -.00000693  00000-0 -25434-4 0  9996,2 49751  53.2187  54.9774 0001426 112.6466 247.4677 15.08836265106647,6917.892,95.438,540.743,538.77,0.0
49751.0,STARLINK-3229,PAYLOAD,2023-10-30 15:41:06,15.0883679,0.000153,53.2178,54.3838,103.522,256.5942,7.552e-06,-1.68e-06,0.0,0 STARLINK-3229,1 49751U 21115AD  23303.65354181 -.00000168  00000-0  75520-5 0  9990,2 49751  53.2178  54.3838 0001530 103.5220 256.5942 15.08836790105553,6917.89,95.438,540.814,538.697,0.0
49751.0,STARLINK-3229,PAYLOAD,2023-10-31 13:56:30,15.08836574,0.0001582,53.2188,50.2222,95.757,264.3603,3.4042e-05,2.54e-06,0.0,0 STARLINK-3229,1 49751U 21115AD  23304.58090723  .00000254  00000-0  34042-4 0  9990,2 49751  53.2188  50.2222 0001582  95.7570 264.3603 15.08836574105699,6917.891,95.438,540.85,538.661,0.0
49751.0,STARLINK-3229,PAYLOAD,2023-10-31 17:07:16,15.08840651,0.0001478,53.2184,49.6277,91.9521,268.164,0.0001608,2.272e-05,0.0,0 STARLINK-3229,1 49751U 21115AD  23304.71338673  .00002272  00000-0  16080-3 0  9997,2 49751  53.2184  49.6277 0001478  91.9521 268.1640 15.08840651106825,6917.878,95.438,540.766,538.721,0.0
49751.0,STARLINK-3229,PAYLOAD,2023-11-01 13:47:17,15.0885181,0.0001377,53.218,45.7627,92.8382,267.2768,0.0005222,8.035e-05,0.0,0 STARLINK-3229,1 49751U 21115AD  23305.57450703  .00008035  00000-0  52220-3 0  9990,2 49751  53.2180  45.7627 0001377  92.8382 267.2768 15.08851810105841,6917.844,95.437,540.662,538.757,0.0
49751.0,STARLINK-3229,PAYLOAD,2023-11-01 16:58:03,15.08859855,0.0001449,53.2177,45.1676,94.6085,265.5073,0.00067194,0.00010428,0.0,0 STARLINK-3229,1 49751U 21115AD  23305.70698407  .00010428  00000-0  67194-3 0  9995,2 49751  53.2177  45.1676 0001449  94.6085 265.5073 15.08859855105864,6917.82,95.436,540.687,538.682,0.0
49751.0,STARLINK-3229,PAYLOAD,2023-11-02 13:38:04,15.08846705,0.0001332,53.2175,41.3022,73.8235,286.2903,0.00018109,2.596e-05,0.0,0 STARLINK-3229,1 49751U 21115AD  23306.56810747  .00002596  00000-0  18109-3 0  9992,2 49751  53.2175  41.3022 0001332  73.8235 286.2903 15.08846705107103,6917.86,95.437,540.646,538.803,0.0
49751.0,STARLINK-3229,PAYLOAD,2023-11-02 23:10:23,15.08839386,0.0001337,53.2168,39.5191,77.0288,283.0853,6.3341e-05,7.2e-06,0.0,0 STARLINK-3229,1 49751U 21115AD  23306.96554932  .00000720  00000-0  63341-4 0  9993,2 49751  53.2168  39.5191 0001337  77.0288 283.0853 15.08839386107162,6917.882,95.438,540.672,538.822,0.0
49751.0,STARLINK-3229,PAYLOAD,2023-11-03 13:28:51,15.08845651,0.000146,53.2177,36.8441,85.8121,274.3038,0.00016663,2.365e-05,0.0,0 STARLINK-3229,1 49751U 21115AD  23307.56170857  .00002365  00000-0  16663-3 0  9991,2 49751  53.2177  36.8441 0001460  85.8121 274.3038 15.08845651106147,6917.863,95.437,540.738,538.718,0.0
49751.0,STARLINK-3229,PAYLOAD,2023-11-03 15:04:14,15.08851056,0.0001487,53.2181,36.547,92.9596,267.1567,0.00027707,4.126e-05,0.0,0 STARLINK-3229,1 49751U 21115AD  23307.62794651  .00004126  00000-0  27707-3 0  9990,2 49751  53.2181  36.5470 0001487  92.9596 267.1567 15.08851056107262,6917.847,95.437,540.74,538.683,0.0
49751.0,STARLINK-3229,PAYLOAD,2023-11-04 05:22:43,15.08838292,0.0001884,53.2184,33.8694,86.8976,273.2231,0.00011562,1.552e-05,0.0,0 STARLINK-3229,1 49751U 21115AD  23308.22411368  .00001552  00000-0  11562-3 0  9990,2 49751  53.2184  33.8694 0001884  86.8976 273.2231 15.08838292107351,6917.886,95.438,541.054,538.447,0.0
49751.0,STARLINK-3229,PAYLOAD,2023-11-04 13:19:38,15.08842352,0.000152,53.2163,32.3822,83.1824,276.9341,0.00015794,2.227e-05,0.0,0 STARLINK-3229,1 49751U 21115AD  23308.55531175  .00002227  00000-0  15794-3 0  9996,2 49751  53.2163  32.3822 0001520  83.1824 276.9341 15.08842352106290,6917.873,95.437,540.79,538.687,0.0
49751.0,STARLINK-3229,PAYLOAD,2023-11-05 11:35:02,15.08851807,0.0001404,53.2172,28.2199,98.1587,261.9564,0.00030505,4.572e-05,0.0,0 STARLINK-3229,1 49751U 21115AD  23309.48266689  .00004572  00000-0  30505-3 0  9996,2 49751  53.2172  28.2199 0001404  98.1587 261.9564 15.08851807107549,6917.844,95.437,540.681,538.738,0.0
49751.0,STARLINK-3229,PAYLOAD,2023-11-05 13:10:25,15.08863841,0.0001507,53.2171,27.9211,92.7774,267.3391,0.00048719,7.479e-05,0.0,0 STARLINK-3229,1 49751U 21115AD  23309.54890212  .00007479  00000-0  48719-3 0  9993,2 49751  53.2171  27.9211 0001507  92.7774 267.3391 15.08863841106448,6917.808,95.436,540.715,538.63,0.0
49751.0,STARLINK-3229,PAYLOAD,2023-11-05 22:42:44,15.08856891,0.0001614,53.2183,26.1363,85.7344,274.3832,0.00046587,7.137e-05,0.0,0 STARLINK-3229,1 49751U 21115AD  23309.94634501  .00007137  00000-0  46587-3 0  9996,2 49751  53.2183  26.1363 0001614  85.7344 274.3832 15.08856891107619,6917.829,95.436,540.81,538.577,0.0
49751.0,STARLINK-3229,PAYLOAD,2023-11-06 11:25:49,15.0881177,0.0001475,53.2171,23.7576,97.1632,262.9528,-0.00097599,-0.00015775,0.0,0 STARLINK-3229,1 49751U 21115AD  23310.47627004 -.00015775  00000-0 -97599-3 0  9994,2 49751  53.2171  23.7576 0001475  97.1632 262.9528 15.08811770107697,6917.967,95.439,540.852,538.811,0.0
49751.0,STARLINK-3229,PAYLOAD,2023-11-06 22:33:33,15.08791633,0.000127,53.2185,21.677,97.6231,262.4905,-0.0010114,-0.00016327,0.0,0 STARLINK-3229,1 49751U 21115AD  23310.93996607 -.00016327  00000-0 -10114-2 0  9994,2 49751  53.2185  21.6770 0001270  97.6231 262.4905 15.08791633107765,6918.028,95.441,540.772,539.015,0.0
49751.0,STARLINK-3229,PAYLOAD,2023-11-07 11:16:39,15.08808894,0.0001435,53.2173,19.2985,90.7901,269.3256,0.00032178,4.833e-05,0.0,0 STARLINK-3229,1 49751U 21115AD  23311.46990029  .00004833  00000-0  32178-3 0  9997,2 49751  53.2173  19.2985 0001435  90.7901 269.3256 15.08808894107846,6917.975,95.44,540.833,538.848,0.0
49751.0,STARLINK-3229,PAYLOAD,2023-11-08 09:32:04,15.08861039,0.0001616,53.2188,15.1397,89.8129,270.3049,0.002194,0.00034823,0.0,0 STARLINK-3229,1 49751U 21115AD  23312.39727288  .00034823  00000-0  21940-2 0  9991,2 49751  53.2188  15.1397 0001616  89.8129 270.3049 15.08861039107983,6917.816,95.436,540.799,538.563,0.0
49751.0,STARLINK-3229,PAYLOAD,2023-11-09 04:36:40,15.08887206,0.0001611,53.2188,11.5687,91.208,268.9096,0.00093326,0.00014615,0.0,0 STARLINK-3229,1 49751U 21115AD  23313.19213347  .00014615  00000-0  93326-3 0  9991,2 49751  53.2188  11.5687 0001611  91.2080 268.9096 15.08887206108107,6917.736,95.435,540.716,538.487,0.0
49751.0,STARLINK-3229,PAYLOAD,2023-11-09 09:22:49,15.08895117,0.000168,53.219,10.677,101.2366,258.8815,0.0010183,0.0001598,0.0,0 STARLINK-3229,1 49751U 21115AD  23313.39084588  .00015980  00000-0  10183-2 0  9991,2 49751  53.2190  10.6770 0001680 101.2366 258.8815 15.08895117107025,6917.712,95.434,540.739,538.415,0.0
49751.0,STARLINK-3229,PAYLOAD,2023-11-09 20:30:30,15.08885808,0.0001717,53.2187,8.5947,67.9388,292.1787,0.00052189,8.038e-05,0.0,0 STARLINK-3229,1 49751U 21115AD  23313.85451658  .00008038  00000-0  52189-3 0  9997,2 49751  53.2187   8.5947 0001717  67.9388 292.1787 15.08885808107098,6917.74,95.435,540.793,538.418,0.0
49751.0,STARLINK-3229,PAYLOAD,2023-11-09 23:41:16,15.08883196,0.0001962,53.2202,8.0086,107.0397,253.081,0.00032162,4.84e-05,0.0,0 STARLINK-3229,1 49751U 21115AD  23313.98699437  .00004840  00000-0  32162-3 0  9996,2 49751  53.2202   8.0086 0001962 107.0397 253.0810 15.08883196108220,6917.748,95.435,540.971,538.256,0.0
49751.0,STARLINK-3229,PAYLOAD,2023-11-10 10:48:58,15.08847728,0.0001327,53.218,5.9189,82.4458,277.6684,-0.00019045,-3.318e-05,0.0,0 STARLINK-3229,1 49751U 21115AD  23314.45067537 -.00003318  00000-0 -19045-3 0  9995,2 49751  53.2180   5.9189 0001327  82.4458 277.6684 15.08847728108293,6917.857,95.437,540.64,538.804,0.0
49751.0,STARLINK-3229,PAYLOAD,2023-11-10 23:32:03,15.0883366,0.0001361,53.2178,3.5408,84.7997,275.315,0.00025007,3.694e-05,0.0,0 STARLINK-3229,1 49751U 21115AD  23314.98060094  .00003694  00000-0  25007-3 0  9994,2 49751  53.2178   3.5408 0001361  84.7997 275.3150 15.08833660108371,6917.9,95.438,540.706,538.823,0.0
49751.0,STARLINK-3229,PAYLOAD,2023-11-11 12:15:08,15.08846291,0.0001404,53.2176,1.162,87.5245,272.5908,0.00019022,2.741e-05,0.0,0 STARLINK-3229,1 49751U 21115AD  23315.51051876  .00002741  00000-0  19022-3 0  9994,2 49751  53.2176   1.1620 0001404  87.5245 272.5908 15.08846291107344,6917.861,95.437,540.697,538.755,0.0
49751.0,STARLINK-3229,PAYLOAD,2023-11-12 10:30:33,15.08841879,0.0001614,53.2175,356.9991,73.2516,286.8653,0.00024545,3.621e-05,0.0,0 STARLINK-3229,1 49751U 21115AD  23316.43788475  .00003621  00000-0  24545-3 0  9992,2 49751  53.2175 356.9991 0001614  73.2516 286.8653 15.08841879108591,6917.875,95.437,540.856,538.623,0.0
49751.0,STARLINK-3229,PAYLOAD,2023-11-12 12:05:56,15.08847963,0.0001512,53.2175,356.7014,83.4923,276.6241,0.00034087,5.142e-05,0.0,0 STARLINK-3229,1 49751U 21115AD  23316.50412195  .00005142  00000-0  34087-3 0  9995,2 49751  53.2175 356.7014 0001512  83.4923 276.6241 15.08847963107495,6917.856,95.437,540.767,538.675,0.0
